{
    "links": {
        "self": "http://www.neowsapp.com/rest/v1/neo/3781915?api_key=iIulBulltgU6a56xZRHN4H3l9WmuAYTsLGpBGhQ2"
    },
    "id": "3781915",
    "neo_reference_id": "3781915",
    "name": "(2017 SW17)",
    "designation": "2017 SW17",
    "nasa_jpl_url": "http://ssd.jpl.nasa.gov/sbdb.cgi?sstr=3781915",
    "absolute_magnitude_h": 24.5,
    "estimated_diameter": {
        "kilometers": {
            "estimated_diameter_min": 0.0334622374,
            "estimated_diameter_max": 0.0748238376
        },
        "meters": {
            "estimated_diameter_min": 33.4622374455,
            "estimated_diameter_max": 74.8238376074
        },
        "miles": {
            "estimated_diameter_min": 0.0207924639,
            "estimated_diameter_max": 0.0464933628
        },
        "feet": {
            "estimated_diameter_min": 109.7842471007,
            "estimated_diameter_max": 245.4850393757
        }
    },
    "is_potentially_hazardous_asteroid": false,
    "close_approach_data": [
        {
            "close_approach_date": "2017-09-12",
            "close_approach_date_full": "2017-Sep-12 12:46",
            "epoch_date_close_approach": 1505220360000,
            "relative_velocity": {
                "kilometers_per_second": "11.8141919161",
                "kilometers_per_hour": "42531.0908979647",
                "miles_per_hour": "26427.165897127"
            },
            "miss_distance": {
                "astronomical": "0.0506083078",
                "lunar": "19.6866317342",
                "kilometers": "7570895.051184386",
                "miles": "4704336.0418450868"
            },
            "orbiting_body": "Earth"
        }
    ],
    "orbital_data": {
        "orbit_id": "1",
        "orbit_determination_date": "2017-09-28 19:58:41",
        "first_observation_date": "2017-09-26",
        "last_observation_date": "2017-09-28",
        "data_arc_in_days": 2,
        "observations_used": 13,
        "orbit_uncertainty": "9",
        "minimum_orbit_intersection": ".0337161",
        "jupiter_tisserand_invariant": "3.202",
        "epoch_osculation": "2458023.5",
        "eccentricity": ".6270751847900738",
        "semi_major_axis": "2.430345149999171",
        "inclination": "5.018921437191506",
        "ascending_node_longitude": "16.99247872930043",
        "orbital_period": "1383.886139290998",
        "perihelion_distance": ".906336015959781",
        "perihelion_argument": "294.859790540055",
        "aphelion_distance": "3.954354284038561",
        "perihelion_time": "2457980.111385974738",
        "mean_anomaly": "11.28698424358583",
        "mean_motion": ".2601370082255738",
        "equinox": "J2000",
        "orbit_class": {
            "orbit_class_type": "APO",
            "orbit_class_description": "Near-Earth asteroid orbits which cross the Earth’s orbit similar to that of 1862 Apollo",
            "orbit_class_range": "a (semi-major axis) > 1.0 AU; q (perihelion) < 1.017 AU"
        }
    },
    "is_sentry_object": false
}